NORAD_CAT_ID,OBJECT_NAME,OBJECT_TYPE,EPOCH,MEAN_MOTION,ECCENTRICITY,INCLINATION,RA_OF_ASC_NODE,ARG_OF_PERICENTER,MEAN_ANOMALY,BSTAR,MEAN_MOTION_DOT,MEAN_MOTION_DDOT,TLE_LINE0,TLE_LINE1,TLE_LINE2,SEMIMAJOR_AXIS,PERIOD,APOGEE,PERIGEE,DECAYED
54176.0,STARLINK-5154,PAYLOAD,2023-10-23 16:56:51,15.08838333,0.000149,53.2178,300.5007,77.7413,282.3746,0.0001289,1.764e-05,0.0,0 STARLINK-5154,1 54176U 22141V   23296.70615347  .00001764  00000-0  12890-3 0  9999,2 54176  53.2178 300.5007 0001490  77.7413 282.3746 15.08838333 54822,6917.885,95.438,540.781,538.72,0.0
54176.0,STARLINK-5154,PAYLOAD,2023-10-24 04:04:33,15.08836757,0.0001535,53.2176,298.424,86.9133,273.2034,7.6973e-05,9.37e-06,0.0,0 STARLINK-5154,1 54176U 22141V   23297.16983611  .00000937  00000-0  76973-4 0  9996,2 54176  53.2176 298.4240 0001535  86.9133 273.2034 15.08836757 54899,6917.89,95.438,540.817,538.693,0.0
54176.0,STARLINK-5154,PAYLOAD,2023-10-24 07:15:19,15.08841082,0.0001575,53.2177,297.8298,88.2261,271.8911,0.00012463,1.696e-05,0.0,0 STARLINK-5154,1 54176U 22141V   23297.30231452  .00001696  00000-0  12463-3 0  9997,2 54176  53.2177 297.8298 0001575  88.2261 271.8911 15.08841082 54915,6917.877,95.437,540.832,538.653,0.0
54176.0,STARLINK-5154,PAYLOAD,2023-10-25 07:06:06,15.08848623,0.0001569,53.217,293.3696,91.6999,268.4173,0.000321,4.826e-05,0.0,0 STARLINK-5154,1 54176U 22141V   23298.29591310  .00004826  00000-0  32100-3 0  9996,2 54176  53.2170 293.3696 0001569  91.6999 268.4173 15.08848623 55067,6917.854,95.437,540.804,538.634,0.0
54176.0,STARLINK-5154,PAYLOAD,2023-10-26 08:32:17,15.08839928,0.0001617,53.2176,288.6108,86.9685,273.1492,7.0966e-05,8.42e-06,0.0,0 STARLINK-5154,1 54176U 22141V   23299.35575714  .00000842  00000-0  70966-4 0  9991,2 54176  53.2176 288.6108 0001617  86.9685 273.1492 15.08839928 55224,6917.881,95.438,540.864,538.627,0.0
54176.0,STARLINK-5154,PAYLOAD,2023-10-26 16:29:13,15.08841924,0.0001557,53.2171,287.1245,92.0418,268.0752,9.5991e-05,1.24e-05,0.0,0 STARLINK-5154,1 54176U 22141V   23299.68695626  .00001240  00000-0  95991-4 0  9990,2 54176  53.2171 287.1245 0001557  92.0418 268.0752 15.08841924 55276,6917.875,95.437,540.817,538.662,0.0
54176.0,STARLINK-5154,PAYLOAD,2023-10-27 05:12:17,15.08856637,0.0001334,53.2156,284.7434,95.1032,265.0112,0.00022852,3.352e-05,0.0,0 STARLINK-5154,1 54176U 22141V   23300.21686706  .00003352  00000-0  22852-3 0  9992,2 54176  53.2156 284.7434 0001334  95.1032 265.0112 15.08856637 55354,6917.83,95.437,540.617,538.772,0.0
54176.0,STARLINK-5154,PAYLOAD,2023-10-27 08:23:03,15.08862775,0.0001383,53.2157,284.1486,95.2295,264.8855,0.00046972,7.2e-05,0.0,0 STARLINK-5154,1 54176U 22141V   23300.34934547  .00007200  00000-0  46972-3 0  9990,2 54176  53.2157 284.1486 0001383  95.2295 264.8855 15.08862775 55375,6917.811,95.436,540.633,538.719,0.0
54176.0,STARLINK-5154,PAYLOAD,2023-10-27 16:20:00,15.08838634,0.0001802,53.217,282.6638,80.5507,279.5689,3.6973e-05,3e-06,0.0,0 STARLINK-5154,1 54176U 22141V   23300.68055595  .00000300  00000-0  36973-4 0  9999,2 54176  53.2170 282.6638 0001802  80.5507 279.5689 15.08838634 55422,6917.885,95.438,540.996,538.503,0.0
54176.0,STARLINK-5154,PAYLOAD,2023-10-28 08:13:51,15.08837915,0.0001491,53.2165,279.6854,97.3202,262.796,5.5956e-05,6.03e-06,0.0,0 STARLINK-5154,1 54176U 22141V   23301.34295721  .00000603  00000-0  55956-4 0  9998,2 54176  53.2165 279.6854 0001491  97.3202 262.7960 15.08837915 55522,6917.887,95.438,540.783,538.72,0.0
54176.0,STARLINK-5154,PAYLOAD,2023-10-28 16:10:47,15.08842323,0.0001429,53.2162,278.1997,93.7221,266.3935,0.00017177,2.447e-05,0.0,0 STARLINK-5154,1 54176U 22141V   23301.67415683  .00002447  00000-0  17177-3 0  9995,2 54176  53.2162 278.1997 0001429  93.7221 266.3935 15.08842323 55579,6917.873,95.437,540.727,538.75,0.0
54176.0,STARLINK-5154,PAYLOAD,2023-10-29 04:53:52,15.08856173,0.0001563,53.2165,275.8196,100.8785,259.2383,0.0008798,0.00013748,0.0,0 STARLINK-5154,1 54176U 22141V   23302.20407465  .00013748  00000-0  87980-3 0  9999,2 54176  53.2165 275.8196 0001563 100.8785 259.2383 15.08856173 55656,6917.831,95.437,540.777,538.615,0.0
54176.0,STARLINK-5154,PAYLOAD,2023-10-29 08:04:38,15.08862514,0.0001583,53.2165,275.2248,99.8047,260.3124,0.0010338,0.00016213,0.0,0 STARLINK-5154,1 54176U 22141V   23302.33655295  .00016213  00000-0  10338-2 0  9991,2 54176  53.2165 275.2248 0001583  99.8047 260.3124 15.08862514 55672,6917.812,95.436,540.772,538.581,0.0
54176.0,STARLINK-5154,PAYLOAD,2023-10-30 04:44:39,15.08847278,0.0001544,53.2173,271.3586,97.313,262.8038,0.0005612,8.657e-05,0.0,0 STARLINK-5154,1 54176U 22141V   23303.19767767  .00008657  00000-0  56120-3 0  9997,2 54176  53.2173 271.3586 0001544  97.3130 262.8038 15.08847278 55802,6917.858,95.437,540.791,538.655,0.0
54176.0,STARLINK-5154,PAYLOAD,2023-10-30 22:13:54,15.08831404,0.0002156,53.2184,268.0879,83.5431,276.5806,0.00087335,0.00013635,0.0,0 STARLINK-5154,1 54176U 22141V   23303.92632524  .00013635  00000-0  87335-3 0  9994,2 54176  53.2184 268.0879 0002156  83.5431 276.5806 15.08831404 55914,6917.907,95.438,541.263,538.28,0.0
54176.0,STARLINK-5154,PAYLOAD,2023-10-31 04:35:26,15.08843246,0.0001586,53.2177,266.9,90.9289,269.1885,0.00031874,4.789e-05,0.0,0 STARLINK-5154,1 54176U 22141V   23304.19128034  .00004789  00000-0  31874-3 0  9997,2 54176  53.2177 266.9000 0001586  90.9289 269.1885 15.08843246 55954,6917.87,95.437,540.833,538.638,0.0
54176.0,STARLINK-5154,PAYLOAD,2023-10-31 14:07:45,15.08838032,0.0001437,53.2172,265.1152,84.2179,275.8977,0.00051929,7.986e-05,0.0,0 STARLINK-5154,1 54176U 22141V   23304.58872565  .00007986  00000-0  51929-3 0  9990,2 54176  53.2172 265.1152 0001437  84.2179 275.8977 15.08838032 56018,6917.886,95.438,540.746,538.757,0.0
54176.0,STARLINK-5154,PAYLOAD,2023-10-31 22:04:41,15.08838794,0.0001516,53.2175,263.629,83.3784,276.7381,0.00017235,2.456e-05,0.0,0 STARLINK-5154,1 54176U 22141V   23304.91992569  .00002456  00000-0  17235-3 0  9993,2 54176  53.2175 263.6290 0001516  83.3784 276.7381 15.08838794 56066,6917.884,95.438,540.798,538.7,0.0
54176.0,STARLINK-5154,PAYLOAD,2023-11-01 13:58:32,15.08856897,0.0001266,53.2174,260.6567,89.4791,270.6346,0.00061733,9.555e-05,0.0,0 STARLINK-5154,1 54176U 22141V   23305.58231833  .00009555  00000-0  61733-3 0  9996,2 54176  53.2174 260.6567 0001266  89.4791 270.6346 15.08856897 56165,6917.829,95.436,540.57,538.818,0.0
54176.0,STARLINK-5154,PAYLOAD,2023-11-01 20:20:04,15.08857834,0.0001449,53.2174,259.4686,90.1382,269.9776,0.00041447,6.318e-05,0.0,0 STARLINK-5154,1 54176U 22141V   23305.84727601  .00006318  00000-0  41447-3 0  9992,2 54176  53.2174 259.4686 0001449  90.1382 269.9776 15.08857834 56206,6917.826,95.436,540.693,538.688,0.0
54176.0,STARLINK-5154,PAYLOAD,2023-11-02 13:49:18,15.0885005,0.0001365,53.2172,256.1954,88.5434,271.5715,-3.0274e-05,-7.7e-06,0.0,0 STARLINK-5154,1 54176U 22141V   23306.57591047 -.00000770  00000-0 -30274-4 0  9991,2 54176  53.2172 256.1954 0001365  88.5434 271.5715 15.08850050 56319,6917.85,95.437,540.659,538.77,0.0
54176.0,STARLINK-5154,PAYLOAD,2023-11-03 04:07:47,15.08837292,0.0001431,53.2166,253.5209,96.1291,263.9864,-9.5552e-05,-1.808e-05,0.0,0 STARLINK-5154,1 54176U 22141V   23307.17207512 -.00001808  00000-0 -95552-4 0  9992,2 54176  53.2166 253.5209 0001431  96.1291 263.9864 15.08837292 56409,6917.889,95.438,540.744,538.764,0.0
54176.0,STARLINK-5154,PAYLOAD,2023-11-03 13:40:06,15.08827884,0.0001505,53.2165,251.7359,98.2038,261.9125,0.00032832,4.939e-05,0.0,0 STARLINK-5154,1 54176U 22141V   23307.56952079  .00004939  00000-0  32832-3 0  9997,2 54176  53.2165 251.7359 0001505  98.2038 261.9125 15.08827884 56468,6917.917,95.438,540.824,538.741,0.0
54176.0,STARLINK-5154,PAYLOAD,2023-11-04 05:33:57,15.08851724,0.0001356,53.2156,248.7621,105.5336,254.5806,0.0010578,0.00016592,0.0,0 STARLINK-5154,1 54176U 22141V   23308.23192075  .00016592  00000-0  10578-2 0  9994,2 54176  53.2156 248.7621 0001356 105.5336 254.5806 15.08851724 56568,6917.845,95.437,540.648,538.771,0.0
54176.0,STARLINK-5154,PAYLOAD,2023-11-04 13:30:54,15.08834806,0.0001741,53.2168,247.2775,90.9548,269.1643,0.00044686,6.83e-05,0.0,0 STARLINK-5154,1 54176U 22141V   23308.56312787  .00006830  00000-0  44686-3 0  9996,2 54176  53.2168 247.2775 0001741  90.9548 269.1643 15.08834806 56614,6917.896,95.438,540.966,538.557,0.0
54176.0,STARLINK-5154,PAYLOAD,2023-11-05 02:13:59,15.08852107,0.0001473,53.2169,244.8956,107.4676,252.6477,0.0010076,0.0001579,0.0,0 STARLINK-5154,1 54176U 22141V   23309.09304585  .00015790  00000-0  10076-2 0  9992,2 54176  53.2169 244.8956 0001473 107.4676 252.6477 15.08852107 56691,6917.843,95.437,540.727,538.689,0.0
54176.0,STARLINK-5154,PAYLOAD,2023-11-05 13:21:40,15.08855665,0.0001458,53.2158,242.8141,101.0056,259.1101,0.00090023,0.00014074,0.0,0 STARLINK-5154,1 54176U 22141V   23309.55672375  .00014074  00000-0  90023-3 0  9993,2 54176  53.2158 242.8141 0001458 101.0056 259.1101 15.08855665 56764,6917.833,95.437,540.706,538.689,0.0
54176.0,STARLINK-5154,PAYLOAD,2023-11-06 02:04:44,15.08911307,0.0001434,53.216,240.4377,85.157,274.9586,0.0028317,0.00045156,0.0,0 STARLINK-5154,1 54176U 22141V   23310.08662796  .00045156  00000-0  28317-2 0  9990,2 54176  53.2160 240.4377 0001434  85.1570 274.9586 15.08911307 56846,6917.662,95.433,540.519,538.535,0.0
54176.0,STARLINK-5154,PAYLOAD,2023-11-06 05:15:30,15.08933151,0.0001753,53.217,239.8414,90.9989,269.1204,0.0033918,0.00054247,0.0,0 STARLINK-5154,1 54176U 22141V   23310.21909998  .00054247  00000-0  33918-2 0  9997,2 54176  53.2170 239.8414 0001753  90.9989 269.1204 15.08933151 56869,6917.596,95.432,540.673,538.248,0.0
54176.0,STARLINK-5154,PAYLOAD,2023-11-06 22:44:44,15.08854869,0.000114,53.2154,236.5691,122.4263,237.6839,0.00024071,3.547e-05,0.0,0 STARLINK-5154,1 54176U 22141V   23310.94773531  .00003547  00000-0  24071-3 0  9997,2 54176  53.2154 236.5691 0001140 122.4263 237.6839 15.08854869 56972,6917.835,95.437,540.489,538.911,0.0
